{"spkid": "20090403", "covariance": {"data": [["8.104793946238902E-19", "-9.160097780089419E-19", "-2.877637255411504E-16", "-1.219259338316195E-16", "4.96876855277069E-17", "1.378058844304685E-16", "1.27333670177778E-24"], ["-9.160097780089419E-19", "1.048291737394125E-18", "2.635679493134987E-16", "1.183762928961623E-16", "-6.094348692220515E-17", "-1.467789379447679E-16", "-1.236578295620885E-24"], ["-2.877637255411504E-16", "2.635679493134987E-16", "5.221684655305013E-13", "1.564790980069937E-13", "7.704192131120553E-14", "-7.445964700526464E-14", "-1.541258627287364E-21"], ["-1.219259338316195E-16", "1.183762928961623E-16", "1.564790980069937E-13", "1.255911600894837E-13", "-6.051917841842405E-14", "-3.13694745786117E-14", "-5.254960235985761E-22"], ["4.96876855277069E-17", "-6.094348692220515E-17", "7.704192131120553E-14", "-6.051917841842405E-14", "1.205871875381921E-13", "1.704613363478651E-14", "-4.811873732022711E-23"], ["1.378058844304685E-16", "-1.467789379447679E-16", "-7.445964700526464E-14", "-3.13694745786117E-14", "1.704613363478651E-14", "4.050514549642854E-14", "3.445824001385976E-22"], ["1.27333670177778E-24", "-1.236578295620885E-24", "-1.541258627287364E-21", "-5.254960235985761E-22", "-4.811873732022711E-23", "3.445824001385976E-22", "5.370735503849005E-30"]], "elements": [{"label": "e", "value": ".2801490941274604", "title": "eccentricity", "units": null, "sigma": 9.00266290951677e-10, "name": "e"}, {"label": "q", "title": "perihelion distance", "value": ".88869804593015", "units": "au", "name": "q", "sigma": 1.02386119049123e-09}, {"sigma": 7.22612251162753e-07, "name": "tp", "value": "2457621.108535254409", "title": "time of perihelion passage", "units": "TDB", "label": "tp"}, {"name": "om", "sigma": 3.54388431088662e-07, "units": "deg", "title": "longitude of the ascending node", "value": "286.2803753806045", "label": "node"}, {"title": "argument of perihelion", "value": "306.8124086804988", "units": "deg", "sigma": 3.47256659458378e-07, "name": "w", "label": "peri"}, {"label": "i", "units": "deg", "title": "inclination", "value": "19.00434108784181", "sigma": 2.01258901657613e-07, "name": "i"}], "labels": ["e", "q", "tp", "node", "peri", "i", "A2"], "epoch": "2457503.5"}, "elements": [{"label": "e", "name": "e", "sigma": "9.5029E-10", "units": null, "value": ".280008595598582", "title": "eccentricity"}, {"sigma": "1.2012E-9", "name": "a", "units": "au", "value": "1.234423434638001", "title": "semi-major axis", "label": "a"}, {"label": "q", "units": "au", "value": ".888774262331036", "title": "perihelion distance", "sigma": "8.7741E-10", "name": "q"}, {"sigma": "2.0125E-7", "name": "i", "units": "deg", "title": "inclination; angle with respect to x-y ecliptic plane", "value": "19.00837087284189", "label": "i"}, {"label": "node", "value": "286.2231810721929", "title": "longitude of the ascending node", "units": "deg", "name": "om", "sigma": "3.5412E-7"}, {"label": "peri", "sigma": "3.4727E-7", "name": "w", "title": "argument of perihelion", "value": "306.8562720209501", "units": "deg"}, {"label": "M", "units": "deg", "value": "52.24723314971248", "title": "mean anomaly", "sigma": "1.7948E-6", "name": "ma"}, {"label": "tp", "title": "time of perihelion passage", "value": "2461127.796476421019", "units": "TDB", "name": "tp", "sigma": "2.3924E-6"}, {"label": "period", "units": "d", "value": "500.950326181571", "title": "sidereal orbital period", "name": "per", "sigma": "7.3119E-7"}, {"units": "deg/d", "value": ".7186341263495193", "title": "mean motion", "name": "n", "sigma": "1.0489E-9", "label": "n"}, {"label": "Q", "units": "au", "value": "1.580072606944965", "title": "aphelion distance", "name": "ad", "sigma": "1.5375E-9"}], "epoch": "2461200.5"}